NORAD_CAT_ID,OBJECT_NAME,OBJECT_TYPE,EPOCH,MEAN_MOTION,ECCENTRICITY,INCLINATION,RA_OF_ASC_NODE,ARG_OF_PERICENTER,MEAN_ANOMALY,BSTAR,MEAN_MOTION_DOT,MEAN_MOTION_DDOT,TLE_LINE0,TLE_LINE1,TLE_LINE2,SEMIMAJOR_AXIS,PERIOD,APOGEE,PERIGEE,DECAYED
50820.0,STARLINK-3339,PAYLOAD,2022-01-11 20:00:01,15.94675721,0.0053631,53.2176,175.5793,179.3876,215.4921,-0.0020187,-0.00916963,0.0002687,0 STARLINK-3339,1 50820U 22001T   22011.83334491 -.00916963  26870-3 -20187-2 0  9993,2 50820  53.2176 175.5793 0053631 179.3876 215.4921 15.94675721  2088,6667.355,90.3,324.978,253.462,0.0
50820.0,STARLINK-3339,PAYLOAD,2022-01-12 06:00:00,15.93926481,0.0050132,53.2174,173.4501,181.3781,86.3584,-0.0020646,-0.00882582,0.00024892,0 STARLINK-3339,1 50820U 22001T   22012.25001157 -.00882582  24892-3 -20646-2 0  9991,2 50820  53.2174 173.4501 0050132 181.3781  86.3584 15.93926481  2149,6669.444,90.343,324.745,257.874,0.0
50820.0,STARLINK-3339,PAYLOAD,2022-01-12 14:00:01,15.93361423,0.0046977,53.2177,171.7508,182.9632,198.2527,-0.0022681,-0.00924724,0.00026925,0 STARLINK-3339,1 50820U 22001T   22012.58334491 -.00924724  26925-3 -22681-2 0  9992,2 50820  53.2177 171.7508 0046977 182.9632 198.2527 15.93361423  1434,6671.021,90.375,324.224,261.548,0.0
50820.0,STARLINK-3339,PAYLOAD,2022-01-12 16:00:00,15.93190724,0.0046266999999999,53.2175,171.3266,182.9901,316.4958,-0.0021719,-0.00874752,0.00024317,0 STARLINK-3339,1 50820U 22001T   22012.66667824 -.00874752  24317-3 -21719-2 0  9999,2 50820  53.2175 171.3266 0046267 182.9901 316.4958 15.93190724  2213,6671.498000000001,90.385,324.23,262.495,0.0
50820.0,STARLINK-3339,PAYLOAD,2022-01-12 22:00:00,15.92751391,0.0044134,53.2173,170.0535,185.4383,308.5684,-0.0022452,-0.00874348,0.00024191,0 STARLINK-3339,1 50820U 22001T   22012.91667824 -.00874348  24191-3 -22452-2 0  9993,2 50820  53.2173 170.0535 0044134 185.4383 308.5684 15.92751391  2253,6672.724,90.41,324.039,265.14,0.0
50820.0,STARLINK-3339,PAYLOAD,2022-01-13 14:00:01,15.91602053,0.0038597,53.2174,166.6596,187.7084,169.7459,-0.0025764,-0.0092182,0.00026314,0 STARLINK-3339,1 50820U 22001T   22013.58334491 -.00921820  26314-3 -25764-2 0  9994,2 50820  53.2174 166.6596 0038597 187.7084 169.7459 15.91602053  1593,6675.936,90.475,323.568,272.034,0.0
50820.0,STARLINK-3339,PAYLOAD,2022-01-13 22:00:00,15.9100304,0.0035638,53.2172,164.9666,191.0558,277.0732,-0.0026046,-0.00893687,0.00024739,0 STARLINK-3339,1 50820U 22001T   22013.91667824 -.00893687  24739-3 -26046-2 0  9992,2 50820  53.2172 164.9666 0035638 191.0558 277.0732 15.91003040  1641,6677.611999999999,90.509,323.274,275.67900000000003,0.0
50820.0,STARLINK-3339,PAYLOAD,2022-01-14 06:00:00,15.90405154,0.0032833,53.2175,163.2716,193.65,24.4518,-0.0026372,-0.00869343,0.00023402,0 STARLINK-3339,1 50820U 22001T   22014.25001157 -.00869343  23402-3 -26372-2 0  9991,2 50820  53.2175 163.2716 0032833 193.6500  24.4518 15.90405154  2469,6679.285,90.543,323.08,279.22,0.0
50820.0,STARLINK-3339,PAYLOAD,2022-01-14 14:00:01,15.8984096,0.0030027,53.2176,161.5816,196.2993,131.0572,-0.0028808,-0.0091439,0.00025497,0 STARLINK-3339,1 50820U 22001T   22014.58334491 -.00914390  25497-3 -28808-2 0  9992,2 50820  53.2176 161.5816 0030027 196.2993 131.0572 15.89840960  2517,6680.865,90.575,322.791,282.67,0.0
50820.0,STARLINK-3339,PAYLOAD,2022-01-14 22:00:00,15.89255367,0.0027579,53.2171,159.8927,198.0228,237.8919,-0.002987,-0.00914146,0.00025344,0 STARLINK-3339,1 50820U 22001T   22014.91667824 -.00914146  25344-3 -29870-2 0  9998,2 50820  53.2171 159.8927 0027579 198.0228 237.8919 15.89255367  2571,6682.505999999999,90.608,322.801,285.942,0.0
50820.0,STARLINK-3339,PAYLOAD,2022-01-15 04:00:00,15.88815658,0.0025185,53.2174,158.6246,202.1356,224.7376,-0.003072,-0.00914161,0.0002524,0 STARLINK-3339,1 50820U 22001T   22015.16667824 -.00914161  25240-3 -30720-2 0  9994,2 50820  53.2174 158.6246 0025185 202.1356 224.7376 15.88815658  2616,6683.739000000001,90.634,322.437,288.771,0.0
50820.0,STARLINK-3339,PAYLOAD,2022-01-15 14:00:01,15.88075425,0.0021992,53.2174,156.5167,206.1851,84.8051,-0.0031538,-0.00898254,0.00024284,0 STARLINK-3339,1 50820U 22001T   22015.58335648 -.00898254  24284-3 -31538-2 0  9995,2 50820  53.2174 156.5167 0021992 206.1851  84.8051 15.88075425  2672,6685.816,90.676,322.385,292.978,0.0
50820.0,STARLINK-3339,PAYLOAD,2022-01-15 22:00:01,15.87503294,0.0019594,53.2171,154.8317,210.7975,186.634,-0.0033597,-0.00925668,0.00025503,0 STARLINK-3339,1 50820U 22001T   22015.91668981 -.00925668  25503-3 -33597-2 0  9993,2 50820  53.2171 154.8317 0019594 210.7975 186.6340 15.87503294  2738,6687.422,90.708,322.391,296.184,0.0
50820.0,STARLINK-3339,PAYLOAD,2022-01-16 06:00:00,15.86898997,0.0016695999999999,53.2172,153.1457,216.5586,286.5574,-0.0033374,-0.00815246,0.0,0 STARLINK-3339,1 50820U 22001T   22016.25001157 -.00815246  00000-0 -33374-2 0  9992,2 50820  53.2172 153.1457 0016696 216.5586 286.5574 15.86898997  2788,6689.12,90.743,322.153,299.817,0.0
50820.0,STARLINK-3339,PAYLOAD,2022-01-16 14:00:01,15.86309098,0.001444,53.2173,151.4649,223.583,24.5722,-0.0034137,-0.00807506,0.0,0 STARLINK-3339,1 50820U 22001T   22016.58334491 -.00807506  00000-0 -34137-2 0  9996,2 50820  53.2173 151.4649 0014440 223.5830  24.5722 15.86309098  2074,6690.778,90.777,322.305,302.982,0.0
50820.0,STARLINK-3339,PAYLOAD,2022-01-16 22:00:00,15.85743094,0.0012667,53.217,149.7842,232.4619,120.0203,-0.0036762,-0.00840445,0.0,0 STARLINK-3339,1 50820U 22001T   22016.91667824 -.00840445  00000-0 -36762-2 0  9997,2 50820  53.2170 149.7842 0012667 232.4619 120.0203 15.85743094  2128,6692.37,90.809,322.712,305.758,0.0
50820.0,STARLINK-3339,PAYLOAD,2022-01-17 06:00:00,15.85151391,0.0010589,53.2173,148.1024,244.5745,211.5421,-0.0037501,-0.00831477,0.0,0 STARLINK-3339,1 50820U 22001T   22017.25001157 -.00831477  00000-0 -37501-2 0  9993,2 50820  53.2173 148.1024 0010589 244.5745 211.5421 15.85151391  2942,6694.035,90.843,322.9890000000001,308.812,0.0
50820.0,STARLINK-3339,PAYLOAD,2022-01-17 14:00:01,15.84550995,0.0009142,53.2175,146.4259,258.2496,300.7976,-0.0037349,-0.00805355,0.0,0 STARLINK-3339,1 50820U 22001T   22017.58334491 -.00805355  00000-0 -37349-2 0  9995,2 50820  53.2175 146.4259 0009142 258.2496 300.7976 15.84550995  2233,6695.726,90.877,323.713,311.47,0.0
50820.0,STARLINK-3339,PAYLOAD,2022-01-17 22:00:00,15.83968977,0.0007878,53.2171,144.7493,266.5554,34.7122,-0.0038687,-0.00809694,0.0,0 STARLINK-3339,1 50820U 22001T   22017.91667824 -.00809694  00000-0 -38687-2 0  9997,2 50820  53.2171 144.7493 0007878 266.5554  34.7122 15.83968977  2285,6697.366,90.911,324.508,313.955,0.0
50820.0,STARLINK-3339,PAYLOAD,2022-01-18 14:00:01,15.82814232,0.000365,53.2171,141.4001,232.6392,270.9558,-0.0042679,-0.00839654,0.0,0 STARLINK-3339,1 50820U 22001T   22018.58334491 -.00839654  00000-0 -42679-2 0  9997,2 50820  53.2171 141.4001 0003650 232.6392 270.9558 15.82814232  3159,6700.623000000001,90.977,324.934,320.043,0.0
50820.0,STARLINK-3339,PAYLOAD,2022-01-18 22:00:00,15.82214166,0.0003001,53.2172,139.7276,232.9898,10.7206,-0.0042491,-0.0081462,0.0,0 STARLINK-3339,1 50820U 22001T   22018.91667824 -.00814620  00000-0 -42491-2 0  9991,2 50820  53.2172 139.7276 0003001 232.9898  10.7206 15.82214166  2449,6702.316999999999,91.012,326.194,322.171,0.0
50820.0,STARLINK-3339,PAYLOAD,2022-01-19 06:00:02,15.81546929,0.0001239,53.2167,138.0544,320.8272,22.4029,-0.0037917,-0.00712369,0.0,0 STARLINK-3339,1 50820U 22001T   22019.25002315 -.00712369  00000-0 -37917-2 0  9991,2 50820  53.2167 138.0544 0001239 320.8272  22.4029 15.81546929  3254,6704.2019999999975,91.05,326.898,325.237,0.0
50820.0,STARLINK-3339,PAYLOAD,2022-01-19 14:00:01,15.81050879,0.0001519,53.2175,136.3875,18.4656,63.3497,-0.0045697,-0.00827723,0.0,0 STARLINK-3339,1 50820U 22001T   22019.58334491 -.00827723  00000-0 -45697-2 0  9995,2 50820  53.2175 136.3875 0001519  18.4656  63.3497 15.81050879  2557,6705.605,91.079,328.48800000000006,326.451,0.0
50820.0,STARLINK-3339,PAYLOAD,2022-01-19 22:00:00,15.80462438,0.0001188,53.2172,134.719,65.194,114.621,-0.0046736,-0.00823966,0.0,0 STARLINK-3339,1 50820U 22001T   22019.91667824 -.00823966  00000-0 -46736-2 0  9991,2 50820  53.2172 134.7190 0001188  65.1940 114.6210 15.80462438  3363,6707.269,91.113,329.931,328.337,0.0
50820.0,STARLINK-3339,PAYLOAD,2022-01-20 14:00:01,15.79290989,0.0001436,53.2174,131.3876,37.1155,336.5829,-0.0049312,-0.0082382,0.0,0 STARLINK-3339,1 50820U 22001T   22020.58334491 -.00823820  00000-0 -49312-2 0  9999,2 50820  53.2174 131.3876 0001436  37.1155 336.5829 15.79290989  2719,6710.585,91.18,333.414,331.487,0.0
50820.0,STARLINK-3339,PAYLOAD,2022-01-20 22:00:00,15.78704378,0.0001155,53.2173,129.7232,59.0035,50.5816,-0.0050549,-0.00822234,0.0,0 STARLINK-3339,1 50820U 22001T   22020.91667824 -.00822234  00000-0 -50549-2 0  9997,2 50820  53.2173 129.7232 0001155  59.0035  50.5816 15.78704378  3523,6712.248000000001,91.214,334.8880000000001,333.337,0.0
50820.0,STARLINK-3339,PAYLOAD,2022-01-21 14:00:01,15.77532298,0.0001386999999999,53.2175,126.4007,45.5536,253.691,-0.0053279,-0.00821968,0.0,0 STARLINK-3339,1 50820U 22001T   22021.58334491 -.00821968  00000-0 -53279-2 0  9998,2 50820  53.2175 126.4007 0001387  45.5536 253.6910 15.77532298  2879,6715.571999999999,91.282,338.36800000000005,336.505,0.0
50820.0,STARLINK-3339,PAYLOAD,2022-01-21 20:00:01,15.77093028,0.0001242,53.2172,125.1559,52.6952,226.9455,-0.0054266,-0.00820901,0.0,0 STARLINK-3339,1 50820U 22001T   22021.83334491 -.00820901  00000-0 -54266-2 0  9999,2 50820  53.2172 125.1559 0001242  52.6952 226.9455 15.77093028  3663,6716.819,91.307,339.51800000000014,337.85,0.0
50820.0,STARLINK-3339,PAYLOAD,2022-01-21 22:00:00,15.76946218,0.0001202,53.2173,124.7407,47.5451,345.4737,-0.0054622,-0.00820864,0.0,0 STARLINK-3339,1 50820U 22001T   22021.91667824 -.00820864  00000-0 -54622-2 0  9991,2 50820  53.2173 124.7407 0001202  47.5451 345.4737 15.76946218  2929,6717.236,91.316,339.908,338.293,0.0
